[{"OBJECT_NAME":"ONEWEB-0392","OBJECT_ID":"2021-132D","EPOCH":"2026-03-09T21:47:28.416192","MEAN_MOTION":13.17649523,"ECCENTRICITY":0.0001764,"INCLINATION":87.9163,"RA_OF_ASC_NODE":25.5532,"ARG_OF_PERICENTER":69.0087,"MEAN_ANOMALY":291.1233,"EPHEMERIS_TYPE":0,"CLASSIFICATION_TYPE":"U","NORAD_CAT_ID":50472,"ELEMENT_SET_NO":999,"REV_AT_EPOCH":20504,"BSTAR":0.00039112641,"MEAN_MOTION_DOT":1.65e-6,"MEAN_MOTION_DDOT":0},{"OBJECT_NAME":"DELTA 1 DEB","OBJECT_ID":"1975-052CK","EPOCH":"2026-03-09T04:50:03.903648","MEAN_MOTION":12.9849598,"ECCENTRICITY":0.02310963,"INCLINATION":99.7385,"RA_OF_ASC_NODE":144.8323,"ARG_OF_PERICENTER":44.3879,"MEAN_ANOMALY":340.2974,"EPHEMERIS_TYPE":0,"CLASSIFICATION_TYPE":"U","NORAD_CAT_ID":21365,"ELEMENT_SET_NO":999,"REV_AT_EPOCH":64837,"BSTAR":0.0020249653,"MEAN_MOTION_DOT":6.38e-6,"MEAN_MOTION_DDOT":0}]
